GLOBALSTAR M023         
1 25621U 99004A   24176.90733507 -.00000001  00000+0  57283-3 0  9991
2 25621  52.0121  61.3349 0010904  59.0981  23.2476 12.62459700170605
GLOBALSTAR M040         
1 25622U 99004B   24176.90189344 -.00000097  00000+0  36761-4 0  9990
2 25622  51.9927  64.9765 0001076  18.9657  63.1790 12.61976417170142
GLOBALSTAR M036         
1 25623U 99004C   24176.96264517 -.00000052  00000+0  44780-3 0  9993
2 25623  51.9964 101.8627 0011558  83.3159 355.8688 11.86568012136571
GLOBALSTAR M038         
1 25624U 99004D   24176.87437885 -.00000075  00000+0  16483-3 0  9998
2 25624  51.9993  20.5703 0002479  46.9898  55.7727 12.32501805158318
GLOBALSTAR M022         
1 25649U 99012A   24177.23335769 -.00000077  00000+0  11933-3 0  9990
2 25649  52.0006 181.2519 0002507 186.4204 256.0422 12.02484400133516
GLOBALSTAR M041         
1 25650U 99012B   24176.80315140 -.00000149  00000+0 -81987-3 0  9992
2 25650  52.0036  52.9746 0002606 356.2577   3.8240 11.96656827135498
GLOBALSTAR M046         
1 25651U 99012C   24177.23412185  .00000036  00000+0  13762-2 0  9996
2 25651  52.0030 144.4131 0002249 268.5924 194.6506 12.09392381140826
GLOBALSTAR M037         
1 25652U 99012D   24176.48973358 -.00000094  00000+0  55382-4 0  9998
2 25652  51.9975 193.3586 0001864 117.9171  35.4680 12.62409335166092
